start=new Date('2023-06-07T00:00:00.000Z').valueOf();
sats=[{"PERIOD":"95.592","TLE_LINE1":"1 46553U 20070X   23157.75426385 -.00001423  00000-0 -76699-4 0  9993","MEAN_MOTION_DDOT":"0.0000000000000","TIME_SYSTEM":"UTC","LAUNCH_DATE":"2020-10-06","CLASSIFICATION_TYPE":"U","EPOCH":"2023-06-06T18:06:08.396640","DECAY_DATE":null,"CENTER_NAME":"EARTH","BSTAR":"-0.00007669900000","SITE":"AFETR","ECCENTRICITY":"0.00012120","NORAD_CAT_ID":"46553","TLE_LINE2":"2 46553  53.0544 346.9369 0001212  82.7553 277.3574 15.06394872148151","ARG_OF_PERICENTER":"82.7553","APOAPSIS":"548.069","OBJECT_ID":"2020-070X","RA_OF_ASC_NODE":"346.9369","RCS_SIZE":"LARGE","MEAN_ANOMALY":"277.3574","GP_ID":"233355313","FILE":"3926571","ELEMENT_SET_NO":"999","PERIAPSIS":"546.390","OBJECT_NAME":"STARLINK-1664","SEMIMAJOR_AXIS":"6925.364","OBJECT_TYPE":"PAYLOAD","MEAN_MOTION":"15.06394872","MEAN_MOTION_DOT":"-0.00001423","COUNTRY_CODE":"US","INCLINATION":"53.0544","REV_AT_EPOCH":"14815","EPHEMERIS_TYPE":"0","MEAN_ELEMENT_THEORY":"SGP4","REF_FRAME":"TEME"},{"TLE_LINE1":"1 46554U 20070Y   23157.80632816 -.00006023  00000-0 -38587-3 0  9992","MEAN_MOTION_DDOT":"0.0000000000000","TIME_SYSTEM":"UTC","PERIOD":"95.593","CLASSIFICATION_TYPE":"U","LAUNCH_DATE":"2020-10-06","CENTER_NAME":"EARTH","EPOCH":"2023-06-06T19:21:06.753024","DECAY_DATE":null,"BSTAR":"-0.00038587000000","SITE":"AFETR","ECCENTRICITY":"0.00014460","NORAD_CAT_ID":"46554","TLE_LINE2":"2 46554  53.0540   1.6940 0001446  93.8790 266.2364 15.06391663147959","OBJECT_ID":"2020-070Y","ARG_OF_PERICENTER":"93.8790","APOAPSIS":"548.241","RA_OF_ASC_NODE":"1.6940","MEAN_ANOMALY":"266.2364","RCS_SIZE":"LARGE","GP_ID":"233354061","OBJECT_NAME":"STARLINK-1671","SEMIMAJOR_AXIS":"6925.374","ELEMENT_SET_NO":"999","FILE":"3926571","PERIAPSIS":"546.238","MEAN_MOTION":"15.06391663","OBJECT_TYPE":"PAYLOAD","MEAN_MOTION_DOT":"-0.00006023","COUNTRY_CODE":"US","REV_AT_EPOCH":"14795","EPHEMERIS_TYPE":"0","INCLINATION":"53.0540","MEAN_ELEMENT_THEORY":"SGP4","REF_FRAME":"TEME"},{"OBJECT_TYPE":"PAYLOAD","MEAN_MOTION":"15.06399082","MEAN_MOTION_DOT":"0.00001792","COUNTRY_CODE":"US","GP_ID":"233354311","ELEMENT_SET_NO":"999","FILE":"3926571","PERIAPSIS":"546.326","OBJECT_NAME":"STARLINK-1676","SEMIMAJOR_AXIS":"6925.351","MEAN_ELEMENT_THEORY":"SGP4","REF_FRAME":"TEME","INCLINATION":"53.0533","REV_AT_EPOCH":"14773","EPHEMERIS_TYPE":"0","DECAY_DATE":null,"EPOCH":"2023-06-06T17:35:37.191840","CENTER_NAME":"EARTH","SITE":"AFETR","BSTAR":"0.00013919000000","ECCENTRICITY":"0.00012850","PERIOD":"95.592","MEAN_MOTION_DDOT":"0.0000000000000","TLE_LINE1":"1 46556U 20070AA  23157.73306935  .00001792  00000-0  13919-3 0  9994","TIME_SYSTEM":"UTC","LAUNCH_DATE":"2020-10-06","CLASSIFICATION_TYPE":"U","RA_OF_ASC_NODE":"17.0265","RCS_SIZE":"LARGE","MEAN_ANOMALY":"254.2138","TLE_LINE2":"2 46556  53.0533  17.0265 0001285 105.8992 254.2138 15.06399082147738","NORAD_CAT_ID":"46556","ARG_OF_PERICENTER":"105.8992","APOAPSIS":"548.106","OBJECT_ID":"2020-070AA"},{"OBJECT_ID":"2020-070AB","ARG_OF_PERICENTER":"95.2551","APOAPSIS":"548.071","TLE_LINE2":"2 46557  53.0550   1.8230 0001235  95.2551 264.8579 15.06399200147951","NORAD_CAT_ID":"46557","MEAN_ANOMALY":"264.8579","RCS_SIZE":"LARGE","RA_OF_ASC_NODE":"1.8230","CLASSIFICATION_TYPE":"U","LAUNCH_DATE":"2020-10-06","MEAN_MOTION_DDOT":"0.0000000000000","TLE_LINE1":"1 46557U 20070AB  23157.77683448  .00001710  00000-0  13366-3 0  9992","TIME_SYSTEM":"UTC","PERIOD":"95.592","BSTAR":"0.00013366000000","SITE":"AFETR","ECCENTRICITY":"0.00012350","CENTER_NAME":"EARTH","DECAY_DATE":null,"EPOCH":"2023-06-06T18:38:38.499072","REV_AT_EPOCH":"14795","EPHEMERIS_TYPE":"0","INCLINATION":"53.0550","REF_FRAME":"TEME","MEAN_ELEMENT_THEORY":"SGP4","OBJECT_NAME":"STARLINK-1679","SEMIMAJOR_AXIS":"6925.351","FILE":"3926571","ELEMENT_SET_NO":"999","PERIAPSIS":"546.361","GP_ID":"233355562","MEAN_MOTION_DOT":"0.00001710","COUNTRY_CODE":"US","MEAN_MOTION":"15.06399200","OBJECT_TYPE":"PAYLOAD"},{"MEAN_ELEMENT_THEORY":"SGP4","REF_FRAME":"TEME","INCLINATION":"53.0549","REV_AT_EPOCH":"14792","EPHEMERIS_TYPE":"0","OBJECT_TYPE":"PAYLOAD","MEAN_MOTION":"15.06397798","MEAN_MOTION_DOT":"0.00016659","COUNTRY_CODE":"US","GP_ID":"233355813","FILE":"3926571","ELEMENT_SET_NO":"999","PERIAPSIS":"546.490","OBJECT_NAME":"STARLINK-1680","SEMIMAJOR_AXIS":"6925.355","RA_OF_ASC_NODE":"1.7910","RCS_SIZE":"LARGE","MEAN_ANOMALY":"265.2384","TLE_LINE2":"2 46558  53.0549   1.7910 0001054  94.8726 265.2384 15.06397798147928","NORAD_CAT_ID":"46558","ARG_OF_PERICENTER":"94.8726","APOAPSIS":"547.950","OBJECT_ID":"2020-070AC","DECAY_DATE":null,"EPOCH":"2023-06-06T18:49:15.967776","CENTER_NAME":"EARTH","SITE":"AFETR","ECCENTRICITY":"0.00010540","BSTAR":"0.00113470000000","PERIOD":"95.592","MEAN_MOTION_DDOT":"0.0000000000000","TLE_LINE1":"1 46558U 20070AC  23157.78421259  .00016659  00000-0  11347-2 0  9998","TIME_SYSTEM":"UTC","LAUNCH_DATE":"2020-10-06","CLASSIFICATION_TYPE":"U"},{"MEAN_MOTION":"15.06394761","OBJECT_TYPE":"PAYLOAD","MEAN_MOTION_DOT":"0.00016498","COUNTRY_CODE":"US","GP_ID":"233354561","SEMIMAJOR_AXIS":"6925.365","OBJECT_NAME":"STARLINK-1681","FILE":"3926571","ELEMENT_SET_NO":"999","PERIAPSIS":"546.400","MEAN_ELEMENT_THEORY":"SGP4","REF_FRAME":"TEME","REV_AT_EPOCH":"14817","EPHEMERIS_TYPE":"0","INCLINATION":"53.0548","CENTER_NAME":"EARTH","EPOCH":"2023-06-06T21:42:23.719680","DECAY_DATE":null,"SITE":"AFETR","BSTAR":"0.00112400000000","ECCENTRICITY":"0.00011980","TLE_LINE1":"1 46559U 20070AD  23157.90444120  .00016498  00000-0  11240-2 0  9998","MEAN_MOTION_DDOT":"0.0000000000000","TIME_SYSTEM":"UTC","PERIOD":"95.592","CLASSIFICATION_TYPE":"U","LAUNCH_DATE":"2020-10-06","RA_OF_ASC_NODE":"346.2421","MEAN_ANOMALY":"279.4209","RCS_SIZE":"LARGE","TLE_LINE2":"2 46559  53.0548 346.2421 0001198  80.6915 279.4209 15.06394761148172","NORAD_CAT_ID":"46559","OBJECT_ID":"2020-070AD","ARG_OF_PERICENTER":"80.6915","APOAPSIS":"548.059"},{"PERIOD":"90.025","TIME_SYSTEM":"UTC","MEAN_MOTION_DDOT":"0.0064136000000","TLE_LINE1":"1 46560U 20070AE  23157.79833312  .02682184  64136-2  57203-2 0  9996","LAUNCH_DATE":"2020-10-06","CLASSIFICATION_TYPE":"U","EPOCH":"2023-06-06T19:09:35.981568","DECAY_DATE":null,"CENTER_NAME":"EARTH","BSTAR":"0.00572030000000","SITE":"AFETR","ECCENTRICITY":"0.00072090","TLE_LINE2":"2 46560  53.0351 295.2473 0007209 327.5724  32.5106 15.99563868148886","NORAD_CAT_ID":"46560","APOAPSIS":"280.427","ARG_OF_PERICENTER":"327.5724","OBJECT_ID":"2020-070AE","RA_OF_ASC_NODE":"295.2473","RCS_SIZE":"LARGE","MEAN_ANOMALY":"32.5106","GP_ID":"233362432","PERIAPSIS":"270.833","ELEMENT_SET_NO":"999","FILE":"3926575","SEMIMAJOR_AXIS":"6653.765","OBJECT_NAME":"STARLINK-1706","OBJECT_TYPE":"PAYLOAD","MEAN_MOTION":"15.99563868","COUNTRY_CODE":"US","MEAN_MOTION_DOT":"0.02682184","INCLINATION":"53.0351","EPHEMERIS_TYPE":"0","REV_AT_EPOCH":"14888","MEAN_ELEMENT_THEORY":"SGP4","REF_FRAME":"TEME"},{"CLASSIFICATION_TYPE":"U","LAUNCH_DATE":"2020-10-06","TIME_SYSTEM":"UTC","TLE_LINE1":"1 46561U 20070AF  23157.68373750 -.00006699  00000-0 -43149-3 0  9994","MEAN_MOTION_DDOT":"0.0000000000000","PERIOD":"95.593","ECCENTRICITY":"0.00005860","SITE":"AFETR","BSTAR":"-0.00043149000000","CENTER_NAME":"EARTH","EPOCH":"2023-06-06T16:24:34.920000","DECAY_DATE":null,"OBJECT_ID":"2020-070AF","APOAPSIS":"547.669","ARG_OF_PERICENTER":"50.3579","TLE_LINE2":"2 46561  53.0559   2.2756 0000586  50.3579 309.7461 15.06383891147939","NORAD_CAT_ID":"46561","MEAN_ANOMALY":"309.7461","RCS_SIZE":"LARGE","RA_OF_ASC_NODE":"2.2756","OBJECT_NAME":"STARLINK-1709","SEMIMAJOR_AXIS":"6925.398","PERIAPSIS":"546.857","ELEMENT_SET_NO":"999","FILE":"3926571","GP_ID":"233355063","COUNTRY_CODE":"US","MEAN_MOTION_DOT":"-0.00006699","MEAN_MOTION":"15.06383891","OBJECT_TYPE":"PAYLOAD","EPHEMERIS_TYPE":"0","REV_AT_EPOCH":"14793","INCLINATION":"53.0559","REF_FRAME":"TEME","MEAN_ELEMENT_THEORY":"SGP4"},{"SITE":"AFETR","BSTAR":"0.00024159000000","ECCENTRICITY":"0.00010740","CENTER_NAME":"EARTH","EPOCH":"2023-06-06T17:58:08.639040","DECAY_DATE":null,"CLASSIFICATION_TYPE":"U","LAUNCH_DATE":"2020-10-06","TLE_LINE1":"1 46562U 20070AG  23157.74871110  .00003319  00000-0  24159-3 0  9999","MEAN_MOTION_DDOT":"0.0000000000000","TIME_SYSTEM":"UTC","PERIOD":"95.592","MEAN_ANOMALY":"259.6014","RCS_SIZE":"LARGE","RA_OF_ASC_NODE":"356.9419","OBJECT_ID":"2020-070AG","ARG_OF_PERICENTER":"100.5096","APOAPSIS":"547.954","NORAD_CAT_ID":"46562","TLE_LINE2":"2 46562  53.0539 356.9419 0001074 100.5096 259.6014 15.06401119148019","MEAN_MOTION_DOT":"0.00003319","COUNTRY_CODE":"US","MEAN_MOTION":"15.06401119","OBJECT_TYPE":"PAYLOAD","OBJECT_NAME":"STARLINK-1714","SEMIMAJOR_AXIS":"6925.345","ELEMENT_SET_NO":"999","FILE":"3926571","PERIAPSIS":"546.466","GP_ID":"233355314","REF_FRAME":"TEME","MEAN_ELEMENT_THEORY":"SGP4","REV_AT_EPOCH":"14801","EPHEMERIS_TYPE":"0","INCLINATION":"53.0539"},{"PERIOD":"95.593","TIME_SYSTEM":"UTC","TLE_LINE1":"1 46563U 20070AH  23157.79757018 -.00001147  00000-0 -58103-4 0  9991","MEAN_MOTION_DDOT":"0.0000000000000","LAUNCH_DATE":"2020-10-06","CLASSIFICATION_TYPE":"U","DECAY_DATE":null,"EPOCH":"2023-06-06T19:08:30.063552","CENTER_NAME":"EARTH","SITE":"AFETR","ECCENTRICITY":"0.00012300","BSTAR":"-0.00005810300000","NORAD_CAT_ID":"46563","TLE_LINE2":"2 46563  53.0551 356.7302 0001230  86.7592 273.3537 15.06393010148027","APOAPSIS":"548.087","ARG_OF_PERICENTER":"86.7592","OBJECT_ID":"2020-070AH","RA_OF_ASC_NODE":"356.7302","RCS_SIZE":"LARGE","MEAN_ANOMALY":"273.3537","GP_ID":"233354062","PERIAPSIS":"546.383","FILE":"3926571","ELEMENT_SET_NO":"999","SEMIMAJOR_AXIS":"6925.370","OBJECT_NAME":"STARLINK-1730","OBJECT_TYPE":"PAYLOAD","MEAN_MOTION":"15.06393010","MEAN_MOTION_DOT":"-0.00001147","COUNTRY_CODE":"US","INCLINATION":"53.0551","EPHEMERIS_TYPE":"0","REV_AT_EPOCH":"14802","MEAN_ELEMENT_THEORY":"SGP4","REF_FRAME":"TEME"}];
